CCSDS_OMM_VERS = 2.0
CREATION_DATE  = 
ORIGINATOR     = 

OBJECT_NAME    = SL-16 R/B
OBJECT_ID      = 1998-045B
CENTER_NAME    = EARTH
REF_FRAME      = TEME
TIME_SYSTEM    = UTC
MEAN_ELEMENT_THEORY = SGP/SGP4

EPOCH          = 2026-03-24T04:39:38.090304
MEAN_MOTION    = 14.16195353
ECCENTRICITY   = .00077379
INCLINATION    = 71.0114
RA_OF_ASC_NODE = 151.0738
ARG_OF_PERICENTER = 345.1441
MEAN_ANOMALY   = 14.9454

EPHEMERIS_TYPE = 0
CLASSIFICATION_TYPE = U
NORAD_CAT_ID   = 25407
ELEMENT_SET_NO = 999
REV_AT_EPOCH   = 42915
BSTAR          = -.55581747E-4
MEAN_MOTION_DOT = -.158E-5
MEAN_MOTION_DDOT = 0

CCSDS_OMM_VERS = 2.0
CREATION_DATE  = 
ORIGINATOR     = 

OBJECT_NAME    = ISS (ZARYA)
OBJECT_ID      = 1998-067A
CENTER_NAME    = EARTH
REF_FRAME      = TEME
TIME_SYSTEM    = UTC
MEAN_ELEMENT_THEORY = SGP/SGP4

EPOCH          = 2026-03-24T03:55:35.551488
MEAN_MOTION    = 15.48514008
ECCENTRICITY   = .00062677
INCLINATION    = 51.6345
RA_OF_ASC_NODE = 0.8084
ARG_OF_PERICENTER = 226.2093
MEAN_ANOMALY   = 133.8378

EPHEMERIS_TYPE = 0
CLASSIFICATION_TYPE = U
NORAD_CAT_ID   = 25544
ELEMENT_SET_NO = 999
REV_AT_EPOCH   = 55857
BSTAR          = .2692749E-3
MEAN_MOTION_DOT = .1417E-3
MEAN_MOTION_DDOT = 0

CCSDS_OMM_VERS = 2.0
CREATION_DATE  = 
ORIGINATOR     = 

OBJECT_NAME    = CZ-4B R/B
OBJECT_ID      = 1999-025C
CENTER_NAME    = EARTH
REF_FRAME      = TEME
TIME_SYSTEM    = UTC
MEAN_ELEMENT_THEORY = SGP/SGP4

EPOCH          = 2026-03-24T03:04:18.552864
MEAN_MOTION    = 14.18268057
ECCENTRICITY   = .00361261
INCLINATION    = 98.6598
RA_OF_ASC_NODE = 127.0657
ARG_OF_PERICENTER = 304.3025
MEAN_ANOMALY   = 117.5315

EPHEMERIS_TYPE = 0
CLASSIFICATION_TYPE = U
NORAD_CAT_ID   = 25732
ELEMENT_SET_NO = 999
REV_AT_EPOCH   = 39021
BSTAR          = .34414653E-4
MEAN_MOTION_DOT = .28E-6
MEAN_MOTION_DDOT = 0

CCSDS_OMM_VERS = 2.0
CREATION_DATE  = 
ORIGINATOR     = 

OBJECT_NAME    = OKEAN-O
OBJECT_ID      = 1999-039A
CENTER_NAME    = EARTH
REF_FRAME      = TEME
TIME_SYSTEM    = UTC
MEAN_ELEMENT_THEORY = SGP/SGP4

EPOCH          = 2026-03-24T04:25:35.305824
MEAN_MOTION    = 14.80357799
ECCENTRICITY   = .00009182
INCLINATION    = 97.9412
RA_OF_ASC_NODE = 142.9265
ARG_OF_PERICENTER = 83.2794
MEAN_ANOMALY   = 276.8523

EPHEMERIS_TYPE = 0
CLASSIFICATION_TYPE = U
NORAD_CAT_ID   = 25860
ELEMENT_SET_NO = 999
REV_AT_EPOCH   = 43653
BSTAR          = .9864939E-4
MEAN_MOTION_DOT = .7E-5
MEAN_MOTION_DDOT = 0

CCSDS_OMM_VERS = 2.0
CREATION_DATE  = 
ORIGINATOR     = 

OBJECT_NAME    = SL-16 R/B
OBJECT_ID      = 1999-039B
CENTER_NAME    = EARTH
REF_FRAME      = TEME
TIME_SYSTEM    = UTC
MEAN_ELEMENT_THEORY = SGP/SGP4

EPOCH          = 2026-03-24T03:36:58.240512
MEAN_MOTION    = 14.81750494
ECCENTRICITY   = .00142002
INCLINATION    = 97.9935
RA_OF_ASC_NODE = 142.2236
ARG_OF_PERICENTER = 205.7667
MEAN_ANOMALY   = 154.2840

EPHEMERIS_TYPE = 0
CLASSIFICATION_TYPE = U
NORAD_CAT_ID   = 25861
ELEMENT_SET_NO = 999
REV_AT_EPOCH   = 43900
BSTAR          = .83329299E-4
MEAN_MOTION_DOT = .604E-5
MEAN_MOTION_DDOT = 0

CCSDS_OMM_VERS = 2.0
CREATION_DATE  = 
ORIGINATOR     = 

OBJECT_NAME    = DELTA 2 R/B
OBJECT_ID      = 1999-041E
CENTER_NAME    = EARTH
REF_FRAME      = TEME
TIME_SYSTEM    = UTC
MEAN_ELEMENT_THEORY = SGP/SGP4

EPOCH          = 2026-03-23T17:47:58.967808
MEAN_MOTION    = 14.11869343
ECCENTRICITY   = .05026176
INCLINATION    = 51.7605
RA_OF_ASC_NODE = 245.1476
ARG_OF_PERICENTER = 29.8785
MEAN_ANOMALY   = 332.9857

EPHEMERIS_TYPE = 0
CLASSIFICATION_TYPE = U
NORAD_CAT_ID   = 25876
ELEMENT_SET_NO = 999
REV_AT_EPOCH   = 36501
BSTAR          = .11787964E-3
MEAN_MOTION_DOT = .486E-5
MEAN_MOTION_DDOT = 0

CCSDS_OMM_VERS = 2.0
CREATION_DATE  = 
ORIGINATOR     = 

OBJECT_NAME    = HELIOS 1B
OBJECT_ID      = 1999-064A
CENTER_NAME    = EARTH
REF_FRAME      = TEME
TIME_SYSTEM    = UTC
MEAN_ELEMENT_THEORY = SGP/SGP4

EPOCH          = 2026-03-24T04:10:53.258592
MEAN_MOTION    = 14.87752370
ECCENTRICITY   = .00020327
INCLINATION    = 98.1679
RA_OF_ASC_NODE = 345.8422
ARG_OF_PERICENTER = 55.2095
MEAN_ANOMALY   = 304.9311

EPHEMERIS_TYPE = 0
CLASSIFICATION_TYPE = U
NORAD_CAT_ID   = 25977
ELEMENT_SET_NO = 999
REV_AT_EPOCH   = 68741
BSTAR          = .19851863E-3
MEAN_MOTION_DOT = .1752E-4
MEAN_MOTION_DDOT = 0

CCSDS_OMM_VERS = 2.0
CREATION_DATE  = 
ORIGINATOR     = 

OBJECT_NAME    = TERRA
OBJECT_ID      = 1999-068A
CENTER_NAME    = EARTH
REF_FRAME      = TEME
TIME_SYSTEM    = UTC
MEAN_ELEMENT_THEORY = SGP/SGP4

EPOCH          = 2026-03-24T05:40:05.274624
MEAN_MOTION    = 14.61029624
ECCENTRICITY   = .00034404
INCLINATION    = 97.9563
RA_OF_ASC_NODE = 136.1130
ARG_OF_PERICENTER = 120.7471
MEAN_ANOMALY   = 310.2015

EPHEMERIS_TYPE = 0
CLASSIFICATION_TYPE = U
NORAD_CAT_ID   = 25994
ELEMENT_SET_NO = 999
REV_AT_EPOCH   = 39720
BSTAR          = .10636323E-3
MEAN_MOTION_DOT = .478E-5
MEAN_MOTION_DDOT = 0

CCSDS_OMM_VERS = 2.0
CREATION_DATE  = 
ORIGINATOR     = 

OBJECT_NAME    = SL-16 R/B
OBJECT_ID      = 2000-006B
CENTER_NAME    = EARTH
REF_FRAME      = TEME
TIME_SYSTEM    = UTC
MEAN_ELEMENT_THEORY = SGP/SGP4

EPOCH          = 2026-03-24T05:07:18.020064
MEAN_MOTION    = 14.15824404
ECCENTRICITY   = .00160081
INCLINATION    = 71.0010
RA_OF_ASC_NODE = 67.2956
ARG_OF_PERICENTER = 167.2572
MEAN_ANOMALY   = 192.8959

EPHEMERIS_TYPE = 0
CLASSIFICATION_TYPE = U
NORAD_CAT_ID   = 26070
ELEMENT_SET_NO = 999
REV_AT_EPOCH   = 35061
BSTAR          = .11094382E-3
MEAN_MOTION_DOT = .171E-5
MEAN_MOTION_DDOT = 0

CCSDS_OMM_VERS = 2.0
CREATION_DATE  = 
ORIGINATOR     = 

OBJECT_NAME    = TITAN 4B R/B
OBJECT_ID      = 2000-047B
CENTER_NAME    = EARTH
REF_FRAME      = TEME
TIME_SYSTEM    = UTC
MEAN_ELEMENT_THEORY = SGP/SGP4

EPOCH          = 2026-03-24T06:32:33.897984
MEAN_MOTION    = 15.09698172
ECCENTRICITY   = .00396504
INCLINATION    = 67.9913
RA_OF_ASC_NODE = 359.5010
ARG_OF_PERICENTER = 18.3388
MEAN_ANOMALY   = 341.9180

EPHEMERIS_TYPE = 0
CLASSIFICATION_TYPE = U
NORAD_CAT_ID   = 26474
ELEMENT_SET_NO = 999
REV_AT_EPOCH   = 39511
BSTAR          = .26104028E-3
MEAN_MOTION_DOT = .4159E-4
MEAN_MOTION_DDOT = 0

CCSDS_OMM_VERS = 2.0
CREATION_DATE  = 
ORIGINATOR     = 

OBJECT_NAME    = ENVISAT
OBJECT_ID      = 2002-009A
CENTER_NAME    = EARTH
REF_FRAME      = TEME
TIME_SYSTEM    = UTC
MEAN_ELEMENT_THEORY = SGP/SGP4

EPOCH          = 2026-03-24T03:13:31.504224
MEAN_MOTION    = 14.39041696
ECCENTRICITY   = .00012471
INCLINATION    = 98.3752
RA_OF_ASC_NODE = 36.3899
ARG_OF_PERICENTER = 81.4598
MEAN_ANOMALY   = 289.8813

EPHEMERIS_TYPE = 0
CLASSIFICATION_TYPE = U
NORAD_CAT_ID   = 27386
ELEMENT_SET_NO = 999
REV_AT_EPOCH   = 26125
BSTAR          = .52067799E-4
MEAN_MOTION_DOT = .118E-5
MEAN_MOTION_DDOT = 0

CCSDS_OMM_VERS = 2.0
CREATION_DATE  = 
ORIGINATOR     = 

OBJECT_NAME    = IDEFIX & ARIANE 42P R/B
OBJECT_ID      = 2002-021B
CENTER_NAME    = EARTH
REF_FRAME      = TEME
TIME_SYSTEM    = UTC
MEAN_ELEMENT_THEORY = SGP/SGP4

EPOCH          = 2026-03-24T02:37:05.050272
MEAN_MOTION    = 14.31035409
ECCENTRICITY   = .00123974
INCLINATION    = 98.5886
RA_OF_ASC_NODE = 21.5443
ARG_OF_PERICENTER = 140.5039
MEAN_ANOMALY   = 219.7049

EPHEMERIS_TYPE = 0
CLASSIFICATION_TYPE = U
NORAD_CAT_ID   = 27422
ELEMENT_SET_NO = 999
REV_AT_EPOCH   = 24608
BSTAR          = .11945437E-3
MEAN_MOTION_DOT = .271E-5
MEAN_MOTION_DDOT = 0

